[{"COMMENT":"GENERATED VIA SPACETRACK.ORG API","ORIGINATOR":"18 SPCS","NORAD_CAT_ID":"43477","OBJECT_NAME":"GRACE-FO 2","OBJECT_TYPE":"PAYLOAD","CLASSIFICATION_TYPE":"U","INTLDES":"18047B","EPOCH":"2023-07-27 20:46:46","EPOCH_MICROSECONDS":"467840","MEAN_MOTION":"15.26413675","ECCENTRICITY":"0.0011532","INCLINATION":"88.9901","RA_OF_ASC_NODE":"343.632","ARG_OF_PERICENTER":"233.9873","MEAN_ANOMALY":"126.0308","EPHEMERIS_TYPE":"0","ELEMENT_SET_NO":"999","REV_AT_EPOCH":"28820","BSTAR":"0.00011349","MEAN_MOTION_DOT":"0.00002987","MEAN_MOTION_DDOT":"0","FILE":"3964919","TLE_LINE0":"0 GRACE-FO 2","TLE_LINE1":"1 43477U 18047B   23208.86581560  .00002987  00000-0  11349-3 0  9996","TLE_LINE2":"2 43477  88.9901 343.6320 0011532 233.9873 126.0308 15.26413675288200","OBJECT_ID":"2018-047B","OBJECT_NUMBER":"43477","SEMIMAJOR_AXIS":"6864.681","PERIOD":"94.339","APOGEE":"494.462","PERIGEE":"478.629","DECAYED":"0"},{"COMMENT":"GENERATED VIA SPACETRACK.ORG API","ORIGINATOR":"18 SPCS","NORAD_CAT_ID":"43477","OBJECT_NAME":"GRACE-FO 2","OBJECT_TYPE":"PAYLOAD","CLASSIFICATION_TYPE":"U","INTLDES":"18047B","EPOCH":"2023-07-28 09:22:00","EPOCH_MICROSECONDS":"750144","MEAN_MOTION":"15.26415835","ECCENTRICITY":"0.0011586","INCLINATION":"88.99","RA_OF_ASC_NODE":"343.5609","ARG_OF_PERICENTER":"230.8904","MEAN_ANOMALY":"129.1315","EPHEMERIS_TYPE":"0","ELEMENT_SET_NO":"999","REV_AT_EPOCH":"28828","BSTAR":"0.000074698","MEAN_MOTION_DOT":"0.00001977","MEAN_MOTION_DDOT":"0","FILE":"3965314","TLE_LINE0":"0 GRACE-FO 2","TLE_LINE1":"1 43477U 18047B   23209.39028646  .00001977  00000-0  74698-4 0  9991","TLE_LINE2":"2 43477  88.9900 343.5609 0011586 230.8904 129.1315 15.26415835288288","OBJECT_ID":"2018-047B","OBJECT_NUMBER":"43477","SEMIMAJOR_AXIS":"6864.674","PERIOD":"94.339","APOGEE":"494.493","PERIGEE":"478.586","DECAYED":"0"},{"COMMENT":"GENERATED VIA SPACETRACK.ORG API","ORIGINATOR":"18 SPCS","NORAD_CAT_ID":"43477","OBJECT_NAME":"GRACE-FO 2","OBJECT_TYPE":"PAYLOAD","CLASSIFICATION_TYPE":"U","INTLDES":"18047B","EPOCH":"2023-07-28 14:05:13","EPOCH_MICROSECONDS":"610112","MEAN_MOTION":"15.26417722","ECCENTRICITY":"0.0011595","INCLINATION":"88.9901","RA_OF_ASC_NODE":"343.5342","ARG_OF_PERICENTER":"230.1321","MEAN_ANOMALY":"129.8908","EPHEMERIS_TYPE":"0","ELEMENT_SET_NO":"999","REV_AT_EPOCH":"28831","BSTAR":"0.00012944","MEAN_MOTION_DOT":"0.00003403","MEAN_MOTION_DDOT":"0","FILE":"3965518","TLE_LINE0":"0 GRACE-FO 2","TLE_LINE1":"1 43477U 18047B   23209.58696308  .00003403  00000-0  12944-3 0  9999","TLE_LINE2":"2 43477  88.9901 343.5342 0011595 230.1321 129.8908 15.26417722288315","OBJECT_ID":"2018-047B","OBJECT_NUMBER":"43477","SEMIMAJOR_AXIS":"6864.669","PERIOD":"94.339","APOGEE":"494.493","PERIGEE":"478.574","DECAYED":"0"},{"COMMENT":"GENERATED VIA SPACETRACK.ORG API","ORIGINATOR":"18 SPCS","NORAD_CAT_ID":"43477","OBJECT_NAME":"GRACE-FO 2","OBJECT_TYPE":"PAYLOAD","CLASSIFICATION_TYPE":"U","INTLDES":"18047B","EPOCH":"2023-07-29 18:24:30","EPOCH_MICROSECONDS":"292128","MEAN_MOTION":"15.26427148","ECCENTRICITY":"0.0011762","INCLINATION":"88.9901","RA_OF_ASC_NODE":"343.3739","ARG_OF_PERICENTER":"224.7654","MEAN_ANOMALY":"135.2647","EPHEMERIS_TYPE":"0","ELEMENT_SET_NO":"999","REV_AT_EPOCH":"28849","BSTAR":"0.00013923","MEAN_MOTION_DOT":"0.00003659","MEAN_MOTION_DDOT":"0","FILE":"3966449","TLE_LINE0":"0 GRACE-FO 2","TLE_LINE1":"1 43477U 18047B   23210.76701727  .00003659  00000-0  13923-3 0  9994","TLE_LINE2":"2 43477  88.9901 343.3739 0011762 224.7654 135.2647 15.26427148288490","OBJECT_ID":"2018-047B","OBJECT_NUMBER":"43477","SEMIMAJOR_AXIS":"6864.640","PERIOD":"94.338","APOGEE":"494.580","PERIGEE":"478.431","DECAYED":"0"},{"COMMENT":"GENERATED VIA SPACETRACK.ORG API","ORIGINATOR":"18 SPCS","NORAD_CAT_ID":"43477","OBJECT_NAME":"GRACE-FO 2","OBJECT_TYPE":"PAYLOAD","CLASSIFICATION_TYPE":"U","INTLDES":"18047B","EPOCH":"2023-07-31 01:52:34","EPOCH_MICROSECONDS":"807296","MEAN_MOTION":"15.26436841","ECCENTRICITY":"0.0011958","INCLINATION":"88.9905","RA_OF_ASC_NODE":"343.1959","ARG_OF_PERICENTER":"218.8595","MEAN_ANOMALY":"141.1795","EPHEMERIS_TYPE":"0","ELEMENT_SET_NO":"999","REV_AT_EPOCH":"28869","BSTAR":"0.00013588","MEAN_MOTION_DOT":"0.00003573","MEAN_MOTION_DDOT":"0","FILE":"3967560","TLE_LINE0":"0 GRACE-FO 2","TLE_LINE1":"1 43477U 18047B   23212.07818064  .00003573  00000-0  13588-3 0  9995","TLE_LINE2":"2 43477  88.9905 343.1959 0011958 218.8595 141.1795 15.26436841288693","OBJECT_ID":"2018-047B","OBJECT_NUMBER":"43477","SEMIMAJOR_AXIS":"6864.611","PERIOD":"94.337","APOGEE":"494.685","PERIGEE":"478.268","DECAYED":"0"},{"COMMENT":"GENERATED VIA SPACETRACK.ORG API","ORIGINATOR":"18 SPCS","NORAD_CAT_ID":"43477","OBJECT_NAME":"GRACE-FO 2","OBJECT_TYPE":"PAYLOAD","CLASSIFICATION_TYPE":"U","INTLDES":"18047B","EPOCH":"2023-08-02 18:23:05","EPOCH_MICROSECONDS":"914752","MEAN_MOTION":"15.26457729","ECCENTRICITY":"0.0012384","INCLINATION":"88.9914","RA_OF_ASC_NODE":"342.8314","ARG_OF_PERICENTER":"207.3002","MEAN_ANOMALY":"152.7598","EPHEMERIS_TYPE":"0","ELEMENT_SET_NO":"999","REV_AT_EPOCH":"28910","BSTAR":"0.00015771","MEAN_MOTION_DOT":"0.00004145","MEAN_MOTION_DDOT":"0","FILE":"3969863","TLE_LINE0":"0 GRACE-FO 2","TLE_LINE1":"1 43477U 18047B   23214.76604068  .00004145  00000-0  15771-3 0  9992","TLE_LINE2":"2 43477  88.9914 342.8314 0012384 207.3002 152.7598 15.26457729289108","OBJECT_ID":"2018-047B","OBJECT_NUMBER":"43477","SEMIMAJOR_AXIS":"6864.549","PERIOD":"94.336","APOGEE":"494.915","PERIGEE":"477.913","DECAYED":"0"},{"COMMENT":"GENERATED VIA SPACETRACK.ORG API","ORIGINATOR":"18 SPCS","NORAD_CAT_ID":"43477","OBJECT_NAME":"GRACE-FO 2","OBJECT_TYPE":"PAYLOAD","CLASSIFICATION_TYPE":"U","INTLDES":"18047B","EPOCH":"2023-08-04 01:51:08","EPOCH_MICROSECONDS":"158464","MEAN_MOTION":"15.26468715","ECCENTRICITY":"0.0012625","INCLINATION":"88.9915","RA_OF_ASC_NODE":"342.6539","ARG_OF_PERICENTER":"201.8189","MEAN_ANOMALY":"158.2524","EPHEMERIS_TYPE":"0","ELEMENT_SET_NO":"999","REV_AT_EPOCH":"28930","BSTAR":"0.00015716","MEAN_MOTION_DOT":"0.00004133","MEAN_MOTION_DDOT":"0","FILE":"3970959","TLE_LINE0":"0 GRACE-FO 2","TLE_LINE1":"1 43477U 18047B   23216.07717776  .00004133  00000-0  15716-3 0  9995","TLE_LINE2":"2 43477  88.9915 342.6539 0012625 201.8189 158.2524 15.26468715289308","OBJECT_ID":"2018-047B","OBJECT_NUMBER":"43477","SEMIMAJOR_AXIS":"6864.516","PERIOD":"94.335","APOGEE":"495.047","PERIGEE":"477.714","DECAYED":"0"},{"COMMENT":"GENERATED VIA SPACETRACK.ORG API","ORIGINATOR":"18 SPCS","NORAD_CAT_ID":"43477","OBJECT_NAME":"GRACE-FO 2","OBJECT_TYPE":"PAYLOAD","CLASSIFICATION_TYPE":"U","INTLDES":"18047B","EPOCH":"2023-08-05 03:01:33","EPOCH_MICROSECONDS":"425184","MEAN_MOTION":"15.26477173","ECCENTRICITY":"0.0012813","INCLINATION":"88.9916","RA_OF_ASC_NODE":"342.5118","ARG_OF_PERICENTER":"197.5046","MEAN_ANOMALY":"162.5763","EPHEMERIS_TYPE":"0","ELEMENT_SET_NO":"999","REV_AT_EPOCH":"28946","BSTAR":"0.00015735","MEAN_MOTION_DOT":"0.00004139","MEAN_MOTION_DDOT":"0","FILE":"3971794","TLE_LINE0":"0 GRACE-FO 2","TLE_LINE1":"1 43477U 18047B   23217.12608131  .00004139  00000-0  15735-3 0  9993","TLE_LINE2":"2 43477  88.9916 342.5118 0012813 197.5046 162.5763 15.26477173289461","OBJECT_ID":"2018-047B","OBJECT_NUMBER":"43477","SEMIMAJOR_AXIS":"6864.490","PERIOD":"94.335","APOGEE":"495.151","PERIGEE":"477.560","DECAYED":"0"},{"COMMENT":"GENERATED VIA SPACETRACK.ORG API","ORIGINATOR":"18 SPCS","NORAD_CAT_ID":"43477","OBJECT_NAME":"GRACE-FO 2","OBJECT_TYPE":"PAYLOAD","CLASSIFICATION_TYPE":"U","INTLDES":"18047B","EPOCH":"2023-08-06 10:29:34","EPOCH_MICROSECONDS":"261440","MEAN_MOTION":"15.26487841","ECCENTRICITY":"0.0013046","INCLINATION":"88.9915","RA_OF_ASC_NODE":"342.3343","ARG_OF_PERICENTER":"192.2158","MEAN_ANOMALY":"167.8777","EPHEMERIS_TYPE":"0","ELEMENT_SET_NO":"999","REV_AT_EPOCH":"28966","BSTAR":"0.00015573","MEAN_MOTION_DOT":"0.00004098","MEAN_MOTION_DDOT":"0","FILE":"3973063","TLE_LINE0":"0 GRACE-FO 2","TLE_LINE1":"1 43477U 18047B   23218.43720210  .00004098  00000-0  15573-3 0  9995","TLE_LINE2":"2 43477  88.9915 342.3343 0013046 192.2158 167.8777 15.26487841289661","OBJECT_ID":"2018-047B","OBJECT_NUMBER":"43477","SEMIMAJOR_AXIS":"6864.458","PERIOD":"94.334","APOGEE":"495.279","PERIGEE":"477.368","DECAYED":"0"},{"COMMENT":"GENERATED VIA SPACETRACK.ORG API","ORIGINATOR":"18 SPCS","NORAD_CAT_ID":"43477","OBJECT_NAME":"GRACE-FO 2","OBJECT_TYPE":"PAYLOAD","CLASSIFICATION_TYPE":"U","INTLDES":"18047B","EPOCH":"2023-08-07 19:31:58","EPOCH_MICROSECONDS":"332576","MEAN_MOTION":"15.26499157","ECCENTRICITY":"0.0013298","INCLINATION":"88.9913","RA_OF_ASC_NODE":"342.1479","ARG_OF_PERICENTER":"186.8002","MEAN_ANOMALY":"173.3069","EPHEMERIS_TYPE":"0","ELEMENT_SET_NO":"999","REV_AT_EPOCH":"28987","BSTAR":"0.00015845","MEAN_MOTION_DOT":"0.00004171","MEAN_MOTION_DDOT":"0","FILE":"3974272","TLE_LINE0":"0 GRACE-FO 2","TLE_LINE1":"1 43477U 18047B   23219.81386959  .00004171  00000-0  15845-3 0  9990","TLE_LINE2":"2 43477  88.9913 342.1479 0013298 186.8002 173.3069 15.26499157289875","OBJECT_ID":"2018-047B","OBJECT_NUMBER":"43477","SEMIMAJOR_AXIS":"6864.424","PERIOD":"94.333","APOGEE":"495.418","PERIGEE":"477.161","DECAYED":"0"}]